COSMOS 2251 DEB         
1 34420U 93036RM  17345.70111047  .00000130  00000-0  28872-4 0  9990
2 34420  74.0349 323.6145 0113443 110.3389 306.9718 14.63335795469792
